{
  "norad_id": 60408,
  "name": "STARLINK-11196 [DTC]",
  "history": [
    {
      "epoch": "2026-03-28T22:17:28.049568Z",
      "apogee_km": 360.3764306835001,
      "perigee_km": 359.0494785134415,
      "latitude_deg": -3.454257716050126e-05,
      "longitude_deg": -169.22319884177176,
      "height_km": 360.3048106084194,
      "semi_major_axis_km": 6737.8499545984705,
      "eccentricity": 9.847e-05,
      "inclination_deg": 53.1583,
      "raan_deg": 351.4859,
      "arg_perigee_deg": 60.9716,
      "mean_anomaly_deg": 299.14,
      "mean_motion_rev_day": 15.69714821
    },
    {
      "epoch": "2026-03-28T23:49:09.085728Z",
      "apogee_km": 360.4156730531631,
      "perigee_km": 359.01554728076917,
      "latitude_deg": 6.023531213326739e-05,
      "longitude_deg": 167.48003232014514,
      "height_km": 360.3831809478416,
      "semi_major_axis_km": 6737.852610166966,
      "eccentricity": 0.0001039,
      "inclination_deg": 53.1589,
      "raan_deg": 351.1728,
      "arg_perigee_deg": 69.4154,
      "mean_anomaly_deg": 290.6976,
      "mean_motion_rev_day": 15.69713893
    },
    {
      "epoch": "2026-03-29T21:12:43.543584Z",
      "apogee_km": 360.42378246075805,
      "perigee_km": 359.02500243568556,
      "latitude_deg": 2.2435058158787652e-05,
      "longitude_deg": -158.68794518407998,
      "height_km": 360.6103378603424,
      "semi_major_axis_km": 6737.8613924482215,
      "eccentricity": 0.0001038,
      "inclination_deg": 53.1604,
      "raan_deg": 346.777,
      "arg_perigee_deg": 87.7188,
      "mean_anomaly_deg": 272.3949,
      "mean_motion_rev_day": 15.69710824
    },
    {
      "epoch": "2026-03-29T21:12:43.545312Z",
      "apogee_km": 360.42405197521384,
      "perigee_km": 359.02473292122977,
      "latitude_deg": 1.8733303612360596e-05,
      "longitude_deg": -158.68795516147074,
      "height_km": 360.61032713466307,
      "semi_major_axis_km": 6737.8613924482215,
      "eccentricity": 0.00010384,
      "inclination_deg": 53.1604,
      "raan_deg": 346.777,
      "arg_perigee_deg": 87.7188,
      "mean_anomaly_deg": 272.3949,
      "mean_motion_rev_day": 15.69710824
    },
    {
      "epoch": "2026-03-30T23:11:21.493536Z",
      "apogee_km": 360.3133071121638,
      "perigee_km": 359.15735773481265,
      "latitude_deg": 1.765262535289315e-05,
      "longitude_deg": 165.2548815934679,
      "height_km": 360.39179286946154,
      "semi_major_axis_km": 6737.872332423488,
      "eccentricity": 8.578e-05,
      "inclination_deg": 53.1571,
      "raan_deg": 341.4448,
      "arg_perigee_deg": 63.5631,
      "mean_anomaly_deg": 296.5475,
      "mean_motion_rev_day": 15.69707001
    },
    {
      "epoch": "2026-03-31T09:53:08.646432Z",
      "apogee_km": 360.18003177440096,
      "perigee_km": 359.3092279525572,
      "latitude_deg": -5.13406248152046e-05,
      "longitude_deg": 2.1702735857532427,
      "height_km": 360.92470965414003,
      "semi_major_axis_km": 6737.881629863478,
      "eccentricity": 6.462e-05,
      "inclination_deg": 53.1611,
      "raan_deg": 339.246,
      "arg_perigee_deg": 127.5794,
      "mean_anomaly_deg": 232.5282,
      "mean_motion_rev_day": 15.69703752
    },
    {
      "epoch": "2026-04-01T21:01:52.042656Z",
      "apogee_km": 360.263118049339,
      "perigee_km": 359.1419415515811,
      "latitude_deg": -1.3445449936193466e-05,
      "longitude_deg": -173.66998367010845,
      "height_km": 360.6271773410902,
      "semi_major_axis_km": 6737.83952980046,
      "eccentricity": 8.32e-05,
      "inclination_deg": 53.1575,
      "raan_deg": 332.0299,
      "arg_perigee_deg": 91.1143,
      "mean_anomaly_deg": 268.997,
      "mean_motion_rev_day": 15.69718464
    },
    {
      "epoch": "2026-04-02T09:15:20.153088Z",
      "apogee_km": 360.4470965690025,
      "perigee_km": 358.94429036505244,
      "latitude_deg": 1.612814270637085e-05,
      "longitude_deg": -0.05062936871380685,
      "height_km": 360.5241648953942,
      "semi_major_axis_km": 6737.832693467028,
      "eccentricity": 0.00011152,
      "inclination_deg": 53.158,
      "raan_deg": 329.5184,
      "arg_perigee_deg": 83.5077,
      "mean_anomaly_deg": 276.6068,
      "mean_motion_rev_day": 15.69720853
    },
    {
      "epoch": "2026-04-02T21:28:48.182304Z",
      "apogee_km": 360.29827042855777,
      "perigee_km": 359.1027085444239,
      "latitude_deg": -4.977192775979075e-05,
      "longitude_deg": 173.56939306211848,
      "height_km": 360.69458246904213,
      "semi_major_axis_km": 6737.837489486491,
      "eccentricity": 8.872e-05,
      "inclination_deg": 53.1583,
      "raan_deg": 327.0073,
      "arg_perigee_deg": 97.7216,
      "mean_anomaly_deg": 262.3902,
      "mean_motion_rev_day": 15.69719177
    },
    {
      "epoch": "2026-04-03T18:52:23.714976Z",
      "apogee_km": 360.8279869213111,
      "perigee_km": 358.7190209335831,
      "latitude_deg": -7.03016635894074e-06,
      "longitude_deg": -152.60261552929148,
      "height_km": 360.6550025214891,
      "semi_major_axis_km": 6737.910503927447,
      "eccentricity": 0.0001565,
      "inclination_deg": 53.1581,
      "raan_deg": 322.6119,
      "arg_perigee_deg": 88.2986,
      "mean_anomaly_deg": 271.8211,
      "mean_motion_rev_day": 15.69693662
    },
    {
      "epoch": "2026-04-04T20:51:01.503360Z",
      "apogee_km": 360.92490412237566,
      "perigee_km": 358.70003320782234,
      "latitude_deg": -1.1060957429395516e-05,
      "longitude_deg": 171.33728483183918,
      "height_km": 359.65809850252197,
      "semi_major_axis_km": 6737.949468665099,
      "eccentricity": 0.0001651,
      "inclination_deg": 53.1574,
      "raan_deg": 317.2761,
      "arg_perigee_deg": 16.1399,
      "mean_anomaly_deg": 343.9671,
      "mean_motion_rev_day": 15.69680046
    },
    {
      "epoch": "2026-04-05T15:11:14.072928Z",
      "apogee_km": 360.63097388596725,
      "perigee_km": 358.8360051875534,
      "latitude_deg": 2.007115824752329e-05,
      "longitude_deg": -108.23503307002001,
      "height_km": 360.17691162640153,
      "semi_major_axis_km": 6737.87048953676,
      "eccentricity": 0.0001332,
      "inclination_deg": 53.1573,
      "raan_deg": 313.5092,
      "arg_perigee_deg": 58.4277,
      "mean_anomaly_deg": 301.6871,
      "mean_motion_rev_day": 15.69707645
    },
    {
      "epoch": "2026-04-05T19:46:16.939488Z",
      "apogee_km": 360.7028502088724,
      "perigee_km": 358.72057511760795,
      "latitude_deg": 1.621126005995712e-05,
      "longitude_deg": -178.1263438012384,
      "height_km": 360.1851950575684,
      "semi_major_axis_km": 6737.84871266324,
      "eccentricity": 0.0001471,
      "inclination_deg": 53.1579,
      "raan_deg": 312.5681,
      "arg_perigee_deg": 63.6669,
      "mean_anomaly_deg": 296.45,
      "mean_motion_rev_day": 15.69715255
    },
    {
      "epoch": "2026-04-05T21:17:57.700032Z",
      "apogee_km": 360.57014324627835,
      "perigee_km": 358.8359579740518,
      "latitude_deg": 5.549450099829916e-06,
      "longitude_deg": 158.5783602612739,
      "height_km": 360.1879339134242,
      "semi_major_axis_km": 6737.840050610165,
      "eccentricity": 0.00012869,
      "inclination_deg": 53.1577,
      "raan_deg": 312.2554,
      "arg_perigee_deg": 60.3836,
      "mean_anomaly_deg": 299.731,
      "mean_motion_rev_day": 15.69718282
    },
    {
      "epoch": "2026-04-06T23:16:34.835232Z",
      "apogee_km": 360.7006210363379,
      "perigee_km": 358.6924771253689,
      "latitude_deg": -1.6097458629802367e-05,
      "longitude_deg": 122.51647478313028,
      "height_km": 360.4428549170811,
      "semi_major_axis_km": 6737.833549080853,
      "eccentricity": 0.00014902,
      "inclination_deg": 53.158,
      "raan_deg": 306.9151,
      "arg_perigee_deg": 80.4469,
      "mean_anomaly_deg": 279.6717,
      "mean_motion_rev_day": 15.69720554
    },
    {
      "epoch": "2026-04-07T20:40:09.146208Z",
      "apogee_km": 360.86774622986195,
      "perigee_km": 358.5822634378219,
      "latitude_deg": -5.414974753216455e-05,
      "longitude_deg": 156.35400772031252,
      "height_km": 360.3691172465693,
      "semi_major_axis_km": 6737.862004833842,
      "eccentricity": 0.0001696,
      "inclination_deg": 53.1578,
      "raan_deg": 302.5242,
      "arg_perigee_deg": 76.4075,
      "mean_anomaly_deg": 283.7131,
      "mean_motion_rev_day": 15.6971061
    },
    {
      "epoch": "2026-04-07T20:40:09.147072Z",
      "apogee_km": 360.86774622986195,
      "perigee_km": 358.5822634378219,
      "latitude_deg": -5.414974752557571e-05,
      "longitude_deg": 156.35400411045416,
      "height_km": 360.3691172465673,
      "semi_major_axis_km": 6737.862004833842,
      "eccentricity": 0.0001696,
      "inclination_deg": 53.1578,
      "raan_deg": 302.5242,
      "arg_perigee_deg": 76.4075,
      "mean_anomaly_deg": 283.7131,
      "mean_motion_rev_day": 15.6971061
    },
    {
      "epoch": "2026-04-09T18:30:40.242240Z",
      "apogee_km": 360.5496835753802,
      "perigee_km": 358.9016023729091,
      "latitude_deg": -2.8228363747804523e-05,
      "longitude_deg": 177.42559163829816,
      "height_km": 360.51445248325336,
      "semi_major_axis_km": 6737.862642974144,
      "eccentricity": 0.0001223,
      "inclination_deg": 53.1582,
      "raan_deg": 293.108,
      "arg_perigee_deg": 81.3094,
      "mean_anomaly_deg": 278.8062,
      "mean_motion_rev_day": 15.69710387
    }
  ]
}